0 SL-16 DEB
1 22400U 92093CR  13281.67826991  .00000168  00000-0  16457-3 0  9782
2 22400 071.2420 008.5066 0161243 348.3738 131.2959 13.86389188 50475
0 SL-16 DEB
1 22400U 92093CR  13284.19482249  .00000205  00000-0  19287-3 0  9793
2 22400 071.2420 003.5268 0161400 344.6332 091.4104 13.86390853 50827
0 SL-16 DEB
1 22400U 92093CR  13286.20570675  .00000223  00000-0  20736-3 0  9801
2 22400 071.2417 359.5475 0161522 341.6446 047.7439 13.86391448 51103
0 SL-16 DEB
1 22400U 92093CR  13288.23630348  .00000317  00000-0  28024-3 0  9813
2 22400 071.2414 355.5293 0161629 338.6311 102.4646 13.86393099 51382
0 SL-16 DEB
1 22400U 92093CR  13290.63185814  .00000298  00000-0  26586-3 0  9823
2 22400 071.2410 350.7887 0161755 335.0782 178.7046 13.86394797 51710
0 SL-16 DEB
1 22400U 92093CR  13293.20942337  .00000298  00000-0  26550-3 0  9832
2 22400 071.2408 345.6874 0161929 331.2542 083.3763 13.86396337 52070
0 SL-16 DEB
1 22400U 92093CR  13295.52076541  .00000313  00000-0  27730-3 0  9844
2 22400 071.2406 341.1130 0162041 327.8383 099.3260 13.86398260 52395
